OBJECT_NAME,OBJECT_ID,EPOCH,MEAN_MOTION,ECCENTRICITY,INCLINATION,RA_OF_ASC_NODE,ARG_OF_PERICENTER,MEAN_ANOMALY,EPHEMERIS_TYPE,CLASSIFICATION_TYPE,NORAD_CAT_ID,ELEMENT_SET_NO,REV_AT_EPOCH,BSTAR,MEAN_MOTION_DOT,MEAN_MOTION_DDOT
PROBA-1,2001-049B,2026-07-11T03:56:21.652800,15.07605549,.0055937,97.9609,201.5342,42.9831,317.5746,0,U,26958,999,34723,.14693E-3,.2245E-4,0
CUTE-1 (CO-55),2003-031E,2026-07-10T00:11:45.746304,14.24349450,.00107182,98.6739,199.2802,116.0719,244.1564,0,U,27844,999,19492,.97602803E-4,.182E-5,0
CUBESAT XI-IV (CO-57),2003-031J,2026-07-10T23:48:33.077664,14.23633076,.001041,98.6772,199.9452,130.5633,229.6453,0,U,27848,999,19476,.76313E-4,.13E-5,0
APRIZESAT 4,2009-041D,2026-07-10T14:07:01.178976,14.83909911,.0042009,98.1405,267.3745,244.8711,114.8142,0,U,35684,999,91483,.54416E-4,.399E-5,0
APRIZESAT 3,2009-041F,2026-07-10T05:41:28.726656,14.96300654,.00611381,98.2087,345.5692,352.2425,7.7843,0,U,35686,999,91982,.98316759E-4,.1084E-4,0
PROBA-2,2009-059B,2026-07-10T19:55:49.295424,14.54872448,.0012699,98.2458,14.8562,202.5665,157.4975,0,U,36037,999,88496,.34781E-4,.104E-5,0
APRIZESAT 5,2011-044E,2026-07-08T18:15:41.477472,14.81120449,.0050828,98.2450,123.4135,293.9839,65.6055,0,U,37792,999,80198,.92978597E-4,.678E-5,0
APRIZESAT 6,2011-044F,2026-07-11T05:11:31.100352,14.76953133,.0043385,98.2343,103.2048,10.9568,150.0729,0,U,37793,999,80069,.67179E-4,.423E-5,0
PROBA-V,2013-021A,2026-07-10T09:12:02.223648,14.23602924,.00053781,98.3602,168.8465,71.1313,289.0449,0,U,39159,999,68441,.43640222E-4,.58E-6,0
APRIZESAT 7,2013-066A,2026-07-11T02:28:23.969280,14.91613804,.0036953,97.7720,144.9812,130.4307,230.0145,0,U,39416,999,68479,.65535E-4,.609E-5,0
APRIZESAT 8,2013-066K,2026-07-11T02:04:07.567680,14.87692282,.0045159,97.8228,139.2224,205.5524,154.3461,0,U,39425,999,68322,.51367E-4,.419E-5,0
BUGSAT-1 (TITA),2014-033E,2026-07-11T04:45:39.327840,15.15857672,.002906,98.0430,286.1555,98.9501,261.5021,0,U,40014,999,65947,.25743E-3,.49E-4,0
SAUDISAT 4,2014-033G,2026-07-11T04:40:20.779680,14.79573077,.0044594,97.7611,337.5031,357.1555,2.9397,0,U,40016,999,64962,.44979E-4,.29E-5,0
APRIZESAT 9,2014-033J,2026-07-09T14:32:28.813920,14.74247790,.00672461,97.9087,323.2598,127.5578,233.1765,0,U,40018,999,64686,.77297808E-4,.477E-5,0
APRIZESAT 10,2014-033K,2026-07-11T03:21:57.809952,14.70907744,.00784,97.9677,318.5692,196.3308,163.5372,0,U,40019,999,64577,.58073E-4,.32E-5,0
TECHDEMOSAT-1 (TDS-1),2014-037H,2026-07-10T10:20:24.311616,15.13637457,.00064586,98.3822,185.9542,173.2380,186.8937,0,U,40076,999,65174,.25869649E-3,.4573E-4,0
TECHNOSAT,2017-042E,2026-07-10T09:16:19.420032,15.05092056,.0017861,97.4303,348.1655,18.8202,341.3681,0,U,42829,999,49019,.18607478E-3,.2596E-4,0
FLYING LAPTOP,2017-042G,2026-07-11T04:20:42.203328,15.01295902,.0019867,97.4788,346.8083,45.1720,315.1115,0,U,42831,999,49005,.17532E-3,.2206E-4,0
HAWK-A,2018-099H,2026-07-10T10:45:30.625632,15.24925601,.00342248,97.3905,243.3829,200.7420,159.2431,0,U,43765,999,41664,.18327804E-3,.4564E-4,0
HAWK-B,2018-099AN,2026-07-11T02:08:08.037024,15.23085137,.0030984,97.3953,243.3798,216.7407,143.1706,0,U,43794,999,41667,.1607E-3,.3765E-4,0
HAWK-C,2018-099AT,2026-07-10T13:38:13.236864,15.28444337,.0039834,97.3884,244.5291,200.2244,159.7420,0,U,43799,999,41748,.20836E-3,.5828E-4,0
SALSAT,2020-068K,2026-07-10T10:17:36.763872,15.30129687,.00086995,97.8857,195.9138,210.5134,149.5600,0,U,46495,999,31891,.18731159E-3,.5381E-4,0
HAWK-2C,2021-006CT,2026-07-11T01:54:40.094208,15.34955387,.0008566,97.2272,235.9148,112.4872,247.7279,0,U,47502,999,30316,.12285E-3,.4091E-4,0
HAWK-2A,2021-006CW,2026-07-11T01:57:55.727136,15.34970478,.0008071,97.2314,236.6088,115.6969,244.5109,0,U,47505,999,30316,.1247E-3,.4155E-4,0
HAWK-2B,2021-006CZ,2026-07-11T01:49:05.975040,15.35097668,.0008652,97.2184,234.8967,114.0430,246.1720,0,U,47508,999,30316,.13605E-3,.456E-4,0
HAWK-3B,2021-059BE,2026-07-10T00:09:47.277216,15.71525502,.00040899,97.6649,29.9062,217.8107,142.2868,0,U,48931,999,28143,.27709148E-3,.35395E-3,0
HAWK-3C,2021-059BX,2026-07-11T00:36:22.595328,15.71601025,.000423,97.6758,36.7502,212.6922,147.4079,0,U,48948,999,28159,.25127E-3,.32175E-3,0
HAWK-3A,2021-059CG,2026-07-11T00:36:12.847680,15.71599731,.0004377,97.6704,33.9356,215.4578,144.6394,0,U,48957,999,28159,.25582E-3,.32762E-3,0
HAWK-5C,2022-057Y,2026-07-10T09:17:30.819264,15.52213217,.0003254,97.6608,352.5680,5.7511,354.3777,0,U,52754,999,22994,.20969E-3,.12612E-3,0
HAWK-5B,2022-057AA,2026-07-10T09:17:14.310816,15.52210401,.0003914,97.6625,350.9202,352.3757,7.7435,0,U,52756,999,22994,.19902E-3,.11964E-3,0
